{"type":"FeatureCollection","metadata":{"source":"OpenStreetMap Nominatim","license":"ODbL-1.0","attribution":"© OpenStreetMap contributors","importedAt":"2026-07-16T04:31:03.885Z"},"features":[{"type":"Feature","id":601,"geometry":{"type":"Point","coordinates":[115.1673505,-8.7465762]},"properties":{"centerId":601,"zoneId":101,"name":"Ngurah Rai International Airport","category":"transport","attractionScore":96,"source":"OpenStreetMap Nominatim","osmType":"way","osmId":82162575,"displayName":"Ngurah Rai International Airport, Badung, Bali, Indonesia"}},{"type":"Feature","id":602,"geometry":{"type":"Point","coordinates":[115.2627374,-8.5069503]},"properties":{"centerId":602,"zoneId":105,"name":"Ubud Palace","category":"culture","attractionScore":86,"source":"OpenStreetMap Nominatim","osmType":"node","osmId":6197929487,"displayName":"Puri Ubud, Jalan Raya Ubud, Ubud, Gianyar, Bali, Kepulauan Nusa Tenggara, 80571, Indonesia"}},{"type":"Feature","id":603,"geometry":{"type":"Point","coordinates":[115.1301437,-8.6595273]},"properties":{"centerId":603,"zoneId":101,"name":"Batu Bolong Beach","category":"tourism","attractionScore":90,"source":"OpenStreetMap Nominatim","osmType":"node","osmId":10703647325,"displayName":"Pantai Batu Bolong, Canggu, Kuta Utara, Badung, Bali, Kepulauan Nusa Tenggara, 08456, Indonesia"}},{"type":"Feature","id":604,"geometry":{"type":"Point","coordinates":[115.2608804,-8.669617]},"properties":{"centerId":604,"zoneId":104,"name":"Sanur Harbour","category":"transport","attractionScore":78,"source":"OpenStreetMap Nominatim","osmType":"way","osmId":560851096,"displayName":"Pelabuhan Sanur, Jalan Sanur Beach Street Walk, Sanur Kaja, Denpasar Selatan, Denpasar, Bali, Kepulauan Nusa Tenggara, 80237, Indonesia"}},{"type":"Feature","id":605,"geometry":{"type":"Point","coordinates":[115.2143241,-8.6698662]},"properties":{"centerId":605,"zoneId":104,"name":"Level 21 Mall Bali","category":"retail","attractionScore":69,"source":"OpenStreetMap Nominatim","osmType":"way","osmId":311366983,"displayName":"Level 21 Mall Bali, 1, Jalan Teuku Umar, Dauh Puri Kelod, Denpasar Barat, Denpasar, Bali, Kepulauan Nusa Tenggara, 80113, Indonesia"}},{"type":"Feature","id":606,"geometry":{"type":"Point","coordinates":[115.2308137,-8.7971956]},"properties":{"centerId":606,"zoneId":101,"name":"Bali Collection","category":"retail","attractionScore":74,"source":"OpenStreetMap Nominatim","osmType":"way","osmId":132366910,"displayName":"The Laguna, a Luxury Collection Resort & Spa, Nusa Dua, Bali, 1, Benoa, Kuta Selatan, Badung, Bali, Kepulauan Nusa Tenggara, 80363, Indonesia"}}]}
